{
  "type": "FeatureCollection",
  "features": [
    {
      "type": "Feature",
      "properties": {
        "norad_id": 38250,
        "name": "BEIDOU-2 M3 (C11)",
        "group": "beidou",
        "lat": 55.91629300138365,
        "lon": 42.18626837847062,
        "alt_km": 21590.254498296184,
        "timestamp": "2025-12-04T09:47:37.786287+00:00",
        "meta_object_name": "BEIDOU-2 M3 (C11)",
        "meta_object_id": "2012-018A",
        "meta_epoch": "2025-12-01T01:13:35.126400",
        "meta_mean_motion": 1.86229725,
        "meta_eccentricity": 0.00245382,
        "meta_inclination": 55.9302,
        "meta_ra_of_asc_node": 311.5507,
        "meta_arg_of_pericenter": 273.3676,
        "meta_mean_anomaly": 86.348,
        "meta_ephemeris_type": 0,
        "meta_classification_type": "U",
        "meta_norad_cat_id": 38250,
        "meta_element_set_no": 999,
        "meta_rev_at_epoch": 9225,
        "meta_bstar": 0,
        "meta_mean_motion_dot": -5.3e-07,
        "meta_mean_motion_ddot": 0,
        "tle_line1": "1 38250U 12018A   25335.05110100 -.00000053  00000+0  00000+0 0  9993",
        "tle_line2": "2 38250  55.9302 311.5507 0024538 273.3676  86.3480  1.86229725 92251"
      },
      "geometry": {
        "type": "Point",
        "coordinates": [
          42.18626837847062,
          55.91629300138365
        ]
      }
    },
    {
      "type": "Feature",
      "properties": {
        "norad_id": 38251,
        "name": "BEIDOU-2 M4 (C12)",
        "group": "beidou",
        "lat": 35.08962837551446,
        "lon": 102.15254697553607,
        "alt_km": 21557.75103596391,
        "timestamp": "2025-12-04T09:47:37.786299+00:00",
        "meta_object_name": "BEIDOU-2 M4 (C12)",
        "meta_object_id": "2012-018B",
        "meta_epoch": "2025-11-30T23:35:43.237248",
        "meta_mean_motion": 1.86229405,
        "meta_eccentricity": 0.00156645,
        "meta_inclination": 55.8317,
        "meta_ra_of_asc_node": 310.7829,
        "meta_arg_of_pericenter": 276.4205,
        "meta_mean_anomaly": 83.3972,
        "meta_ephemeris_type": 0,
        "meta_classification_type": "U",
        "meta_norad_cat_id": 38251,
        "meta_element_set_no": 999,
        "meta_rev_at_epoch": 9225,
        "meta_bstar": 0,
        "meta_mean_motion_dot": -5.3e-07,
        "meta_mean_motion_ddot": 0,
        "tle_line1": "1 38251U 12018B   25334.98313932 -.00000053  00000+0  00000+0 0  9993",
        "tle_line2": "2 38251  55.8317 310.7829 0015664 276.4205  83.3972  1.86229405 92255"
      },
      "geometry": {
        "type": "Point",
        "coordinates": [
          102.15254697553607,
          35.08962837551446
        ]
      }
    },
    {
      "type": "Feature",
      "properties": {
        "norad_id": 38775,
        "name": "BEIDOU-2 M6 (C14)",
        "group": "beidou",
        "lat": -24.641990332481697,
        "lon": 51.599741844621036,
        "alt_km": 21502.187640127002,
        "timestamp": "2025-12-04T09:47:37.786310+00:00",
        "meta_object_name": "BEIDOU-2 M6 (C14)",
        "meta_object_id": "2012-050B",
        "meta_epoch": "2025-12-02T20:12:21.766176",
        "meta_mean_motion": 1.86230699,
        "meta_eccentricity": 0.00108906,
        "meta_inclination": 56.3701,
        "meta_ra_of_asc_node": 69.396,
        "meta_arg_of_pericenter": 346.3051,
        "meta_mean_anomaly": 13.6678,
        "meta_ephemeris_type": 0,
        "meta_classification_type": "U",
        "meta_norad_cat_id": 38775,
        "meta_element_set_no": 999,
        "meta_rev_at_epoch": 8965,
        "meta_bstar": 0,
        "meta_mean_motion_dot": -4.8e-07,
        "meta_mean_motion_ddot": 0,
        "tle_line1": "1 38775U 12050B   25336.84191859 -.00000048  00000+0  00000+0 0  9993",
        "tle_line2": "2 38775  56.3701  69.3960 0010890 346.3051  13.6678  1.86230699 89650"
      },
      "geometry": {
        "type": "Point",
        "coordinates": [
          51.599741844621036,
          -24.641990332481697
        ]
      }
    },
    {
      "type": "Feature",
      "properties": {
        "norad_id": 38953,
        "name": "BEIDOU-2 G6 (C02)",
        "group": "beidou",
        "lat": -2.963768324911482,
        "lon": -55.71761563549865,
        "alt_km": 35772.00885333831,
        "timestamp": "2025-12-04T09:47:37.786322+00:00",
        "meta_object_name": "BEIDOU-2 G6 (C02)",
        "meta_object_id": "2012-059A",
        "meta_epoch": "2025-12-03T20:01:38.715168",
        "meta_mean_motion": 1.00270617,
        "meta_eccentricity": 0.00073543,
        "meta_inclination": 3.9249,
        "meta_ra_of_asc_node": 75.5902,
        "meta_arg_of_pericenter": 289.87,
        "meta_mean_anomaly": 91.9175,
        "meta_ephemeris_type": 0,
        "meta_classification_type": "U",
        "meta_norad_cat_id": 38953,
        "meta_element_set_no": 999,
        "meta_rev_at_epoch": 4795,
        "meta_bstar": 0,
        "meta_mean_motion_dot": -1.6e-06,
        "meta_mean_motion_ddot": 0,
        "tle_line1": "1 38953U 12059A   25337.83447587 -.00000160  00000+0  00000+0 0  9997",
        "tle_line2": "2 38953   3.9249  75.5902 0007354 289.8700  91.9175  1.00270617 47959"
      },
      "geometry": {
        "type": "Point",
        "coordinates": [
          -55.71761563549865,
          -2.963768324911482
        ]
      }
    },
    {
      "type": "Feature",
      "properties": {
        "norad_id": 40748,
        "name": "BEIDOU-3S M2S (C58)",
        "group": "beidou",
        "lat": -1.0285932020266337,
        "lon": -51.9909817089667,
        "alt_km": 21529.5948182503,
        "timestamp": "2025-12-04T09:47:37.786333+00:00",
        "meta_object_name": "BEIDOU-3S M2S (C58)",
        "meta_object_id": "2015-037A",
        "meta_epoch": "2025-12-01T04:31:01.292160",
        "meta_mean_motion": 1.86229002,
        "meta_eccentricity": 0.0012493,
        "meta_inclination": 55.0491,
        "meta_ra_of_asc_node": 308.8604,
        "meta_arg_of_pericenter": 267.0141,
        "meta_mean_anomaly": 92.8367,
        "meta_ephemeris_type": 0,
        "meta_classification_type": "U",
        "meta_norad_cat_id": 40748,
        "meta_element_set_no": 999,
        "meta_rev_at_epoch": 7043,
        "meta_bstar": 0,
        "meta_mean_motion_dot": -5.6e-07,
        "meta_mean_motion_ddot": 0,
        "tle_line1": "1 40748U 15037A   25335.18820940 -.00000056  00000+0  00000+0 0  9999",
        "tle_line2": "2 40748  55.0491 308.8604 0012493 267.0141  92.8367  1.86229002 70437"
      },
      "geometry": {
        "type": "Point",
        "coordinates": [
          -51.9909817089667,
          -1.0285932020266337
        ]
      }
    },
    {
      "type": "Feature",
      "properties": {
        "norad_id": 40749,
        "name": "BEIDOU-3S M1S (C57)",
        "group": "beidou",
        "lat": -19.233651786449347,
        "lon": 142.83853738318803,
        "alt_km": 21536.622413226814,
        "timestamp": "2025-12-04T09:47:37.786344+00:00",
        "meta_object_name": "BEIDOU-3S M1S (C57)",
        "meta_object_id": "2015-037B",
        "meta_epoch": "2025-12-01T22:57:46.412352",
        "meta_mean_motion": 1.86253762,
        "meta_eccentricity": 0.0003321,
        "meta_inclination": 55.0451,
        "meta_ra_of_asc_node": 308.8236,
        "meta_arg_of_pericenter": 355.9906,
        "meta_mean_anomaly": 3.9975,
        "meta_ephemeris_type": 0,
        "meta_classification_type": "U",
        "meta_norad_cat_id": 40749,
        "meta_element_set_no": 999,
        "meta_rev_at_epoch": 7045,
        "meta_bstar": 0,
        "meta_mean_motion_dot": -6e-07,
        "meta_mean_motion_ddot": 0,
        "tle_line1": "1 40749U 15037B   25335.95678718 -.00000060  00000+0  00000+0 0  9994",
        "tle_line2": "2 40749  55.0451 308.8236 0003321 355.9906   3.9975  1.86253762 70451"
      },
      "geometry": {
        "type": "Point",
        "coordinates": [
          142.83853738318803,
          -19.233651786449347
        ]
      }
    },
    {
      "type": "Feature",
      "properties": {
        "norad_id": 40938,
        "name": "BEIDOU-3S IGSO-2S (C56)",
        "group": "beidou",
        "lat": 38.504472362485714,
        "lon": -56.263660838334985,
        "alt_km": 35959.2593025204,
        "timestamp": "2025-12-04T09:47:37.786356+00:00",
        "meta_object_name": "BEIDOU-3S IGSO-2S (C56)",
        "meta_object_id": "2015-053A",
        "meta_epoch": "2025-12-03T17:17:32.013024",
        "meta_mean_motion": 1.0027148,
        "meta_eccentricity": 0.00611089,
        "meta_inclination": 49.5266,
        "meta_ra_of_asc_node": 261.1136,
        "meta_arg_of_pericenter": 188.632,
        "meta_mean_anomaly": 338.5579,
        "meta_ephemeris_type": 0,
        "meta_classification_type": "U",
        "meta_norad_cat_id": 40938,
        "meta_element_set_no": 999,
        "meta_rev_at_epoch": 3739,
        "meta_bstar": 0,
        "meta_mean_motion_dot": -1.53e-06,
        "meta_mean_motion_ddot": 0,
        "tle_line1": "1 40938U 15053A   25337.72050941 -.00000153  00000+0  00000+0 0  9994",
        "tle_line2": "2 40938  49.5266 261.1136 0061108 188.6320 338.5579  1.00271480 37397"
      },
      "geometry": {
        "type": "Point",
        "coordinates": [
          -56.263660838334985,
          38.504472362485714
        ]
      }
    }
  ]
}